{
  "type": "FeatureCollection",
  "features": [
    {
      "type": "Feature",
      "properties": {
        "norad_id": 44334,
        "name": "EUTELSAT 7C",
        "group": "eutelsat",
        "lat": 0.051789791059041156,
        "lon": -100.08380968420022,
        "alt_km": 35772.68409905427,
        "timestamp": "2025-12-10T11:33:53.062960+00:00",
        "meta_object_name": "EUTELSAT 7C",
        "meta_object_id": "2019-034B",
        "meta_epoch": "2025-12-10T00:54:38.687328",
        "meta_mean_motion": 1.00271046,
        "meta_eccentricity": 0.0003355,
        "meta_inclination": 0.0729,
        "meta_ra_of_asc_node": 178.2937,
        "meta_arg_of_pericenter": 64.3773,
        "meta_mean_anomaly": 216.9906,
        "meta_ephemeris_type": 0,
        "meta_classification_type": "U",
        "meta_norad_cat_id": 44334,
        "meta_element_set_no": 999,
        "meta_rev_at_epoch": 493,
        "meta_bstar": 0,
        "meta_mean_motion_dot": 5.1e-07,
        "meta_mean_motion_ddot": 0,
        "tle_line1": "1 44334U 19034B   25344.03794777  .00000051  00000+0  00000+0 0  9991",
        "tle_line2": "2 44334   0.0729 178.2937 0003355  64.3773 216.9906  1.00271046  4931"
      },
      "geometry": {
        "type": "Point",
        "coordinates": [
          -100.08380968420022,
          0.051789791059041156
        ]
      }
    },
    {
      "type": "Feature",
      "properties": {
        "norad_id": 44624,
        "name": "EUTELSAT 5 WEST B",
        "group": "eutelsat",
        "lat": -0.08210080931103902,
        "lon": -112.08491121921702,
        "alt_km": 35771.821693395395,
        "timestamp": "2025-12-10T11:33:53.062971+00:00",
        "meta_object_name": "EUTELSAT 5 WEST B",
        "meta_object_id": "2019-067A",
        "meta_epoch": "2025-12-09T23:54:38.674080",
        "meta_mean_motion": 1.0027126,
        "meta_eccentricity": 0.0003479,
        "meta_inclination": 0.0634,
        "meta_ra_of_asc_node": 343.3275,
        "meta_arg_of_pericenter": 276.5671,
        "meta_mean_anomaly": 172.7444,
        "meta_ephemeris_type": 0,
        "meta_classification_type": "U",
        "meta_norad_cat_id": 44624,
        "meta_element_set_no": 999,
        "meta_rev_at_epoch": 2254,
        "meta_bstar": 0,
        "meta_mean_motion_dot": -3.9e-07,
        "meta_mean_motion_ddot": 0,
        "tle_line1": "1 44624U 19067A   25343.99628095 -.00000039  00000+0  00000+0 0  9999",
        "tle_line2": "2 44624   0.0634 343.3275 0003479 276.5671 172.7444  1.00271260 22540"
      },
      "geometry": {
        "type": "Point",
        "coordinates": [
          -112.08491121921702,
          -0.08210080931103902
        ]
      }
    },
    {
      "type": "Feature",
      "properties": {
        "norad_id": 45027,
        "name": "EUTELSAT KONNECT",
        "group": "eutelsat",
        "lat": -0.0014005048687669801,
        "lon": -99.90246155655225,
        "alt_km": 35780.41162031615,
        "timestamp": "2025-12-10T11:33:53.062983+00:00",
        "meta_object_name": "EUTELSAT KONNECT",
        "meta_object_id": "2020-005B",
        "meta_epoch": "2025-12-10T00:54:38.687328",
        "meta_mean_motion": 1.00268676,
        "meta_eccentricity": 0.0001729,
        "meta_inclination": 0.0718,
        "meta_ra_of_asc_node": 96.1497,
        "meta_arg_of_pericenter": 191.1313,
        "meta_mean_anomaly": 172.586,
        "meta_ephemeris_type": 0,
        "meta_classification_type": "U",
        "meta_norad_cat_id": 45027,
        "meta_element_set_no": 999,
        "meta_rev_at_epoch": 2244,
        "meta_bstar": 0,
        "meta_mean_motion_dot": 5.2e-07,
        "meta_mean_motion_ddot": 0,
        "tle_line1": "1 45027U 20005B   25344.03794777  .00000052  00000+0  00000+0 0  9992",
        "tle_line2": "2 45027   0.0718  96.1497 0001729 191.1313 172.5860  1.00268676 22447"
      },
      "geometry": {
        "type": "Point",
        "coordinates": [
          -99.90246155655225,
          -0.0014005048687669801
        ]
      }
    },
    {
      "type": "Feature",
      "properties": {
        "norad_id": 49056,
        "name": "EUTELSAT QUANTUM",
        "group": "eutelsat",
        "lat": -0.027854801395053422,
        "lon": -59.35744888460386,
        "alt_km": 35772.32587919703,
        "timestamp": "2025-12-10T11:33:53.062994+00:00",
        "meta_object_name": "EUTELSAT QUANTUM",
        "meta_object_id": "2021-069B",
        "meta_epoch": "2025-12-10T01:01:38.759808",
        "meta_mean_motion": 1.00271191,
        "meta_eccentricity": 0.0003733,
        "meta_inclination": 0.0154,
        "meta_ra_of_asc_node": 17.7471,
        "meta_arg_of_pericenter": 254.4251,
        "meta_mean_anomaly": 229.9614,
        "meta_ephemeris_type": 0,
        "meta_classification_type": "U",
        "meta_norad_cat_id": 49056,
        "meta_element_set_no": 999,
        "meta_rev_at_epoch": 1603,
        "meta_bstar": 0,
        "meta_mean_motion_dot": 1.29e-06,
        "meta_mean_motion_ddot": 0,
        "tle_line1": "1 49056U 21069B   25344.04280972  .00000129  00000+0  00000+0 0  9992",
        "tle_line2": "2 49056   0.0154  17.7471 0003733 254.4251 229.9614  1.00271191 16037"
      },
      "geometry": {
        "type": "Point",
        "coordinates": [
          -59.35744888460386,
          -0.027854801395053422
        ]
      }
    },
    {
      "type": "Feature",
      "properties": {
        "norad_id": 53765,
        "name": "EUTELSAT KONNECT VHTS",
        "group": "eutelsat",
        "lat": 0.005666157684094659,
        "lon": -104.3613061286463,
        "alt_km": 35775.86241385184,
        "timestamp": "2025-12-10T11:33:53.063019+00:00",
        "meta_object_name": "EUTELSAT KONNECT VHTS",
        "meta_object_id": "2022-110A",
        "meta_epoch": "2025-12-09T23:46:38.709120",
        "meta_mean_motion": 1.00271013,
        "meta_eccentricity": 0.0002577,
        "meta_inclination": 0.0646,
        "meta_ra_of_asc_node": 101.3791,
        "meta_arg_of_pericenter": 136.8427,
        "meta_mean_anomaly": 200.1185,
        "meta_ephemeris_type": 0,
        "meta_classification_type": "U",
        "meta_norad_cat_id": 53765,
        "meta_element_set_no": 999,
        "meta_rev_at_epoch": 492,
        "meta_bstar": 0,
        "meta_mean_motion_dot": 2e-07,
        "meta_mean_motion_ddot": 0,
        "tle_line1": "1 53765U 22110A   25343.99072580  .00000020  00000+0  00000+0 0  9999",
        "tle_line2": "2 53765   0.0646 101.3791 0002577 136.8427 200.1185  1.00271013  4925"
      },
      "geometry": {
        "type": "Point",
        "coordinates": [
          -104.3613061286463,
          0.005666157684094659
        ]
      }
    },
    {
      "type": "Feature",
      "properties": {
        "norad_id": 54048,
        "name": "EUTELSAT HOTBIRD 13F",
        "group": "eutelsat",
        "lat": -0.036635573902536724,
        "lon": -94.08311071910389,
        "alt_km": 35786.95298975898,
        "timestamp": "2025-12-10T11:33:53.063034+00:00",
        "meta_object_name": "EUTELSAT HOTBIRD 13F",
        "meta_object_id": "2022-134A",
        "meta_epoch": "2025-12-10T00:54:38.687328",
        "meta_mean_motion": 1.00269342,
        "meta_eccentricity": 0.0001965,
        "meta_inclination": 0.0509,
        "meta_ra_of_asc_node": 290.7217,
        "meta_arg_of_pericenter": 66.6695,
        "meta_mean_anomaly": 108.3077,
        "meta_ephemeris_type": 0,
        "meta_classification_type": "U",
        "meta_norad_cat_id": 54048,
        "meta_element_set_no": 999,
        "meta_rev_at_epoch": 1148,
        "meta_bstar": 0,
        "meta_mean_motion_dot": 9e-07,
        "meta_mean_motion_ddot": 0,
        "tle_line1": "1 54048U 22134A   25344.03794777  .00000090  00000+0  00000+0 0  9992",
        "tle_line2": "2 54048   0.0509 290.7217 0001965  66.6695 108.3077  1.00269342 11481"
      },
      "geometry": {
        "type": "Point",
        "coordinates": [
          -94.08311071910389,
          -0.036635573902536724
        ]
      }
    },
    {
      "type": "Feature",
      "properties": {
        "norad_id": 54225,
        "name": "EUTELSAT HOTBIRD 13G",
        "group": "eutelsat",
        "lat": 0.0031811302740936357,
        "lon": -94.05944927628724,
        "alt_km": 35782.58233591913,
        "timestamp": "2025-12-10T11:33:53.063046+00:00",
        "meta_object_name": "EUTELSAT HOTBIRD 13G",
        "meta_object_id": "2022-146A",
        "meta_epoch": "2025-12-10T00:54:38.687328",
        "meta_mean_motion": 1.00273852,
        "meta_eccentricity": 0.0001852,
        "meta_inclination": 0.0516,
        "meta_ra_of_asc_node": 237.7706,
        "meta_arg_of_pericenter": 319.6405,
        "meta_mean_anomaly": 268.2621,
        "meta_ephemeris_type": 0,
        "meta_classification_type": "U",
        "meta_norad_cat_id": 54225,
        "meta_element_set_no": 999,
        "meta_rev_at_epoch": 557,
        "meta_bstar": 0,
        "meta_mean_motion_dot": 9e-07,
        "meta_mean_motion_ddot": 0,
        "tle_line1": "1 54225U 22146A   25344.03794777  .00000090  00000+0  00000+0 0  9992",
        "tle_line2": "2 54225   0.0516 237.7706 0001852 319.6405 268.2621  1.00273852  5570"
      },
      "geometry": {
        "type": "Point",
        "coordinates": [
          -94.05944927628724,
          0.0031811302740936357
        ]
      }
    }
  ]
}